KUIPER-00071            
1 64818U 25151C   25255.91668981 -.00082637  00000+0 -72715-2 0  9999
2 64818  51.8946   9.8499 0006729   8.1360  35.5296 14.96416294  5093
KUIPER-00072            
1 64819U 25151D   25255.70207014  .00050167  00000+0  13748-2 0  9995
2 64819  51.8804   5.7629 0006674 354.5948   5.4965 15.36789508  8971
KUIPER-00073            
1 64820U 25151E   25255.91668981 -.00082176  00000+0 -68586-2 0  9991
2 64820  51.8957   9.8615 0011091  19.0091 140.1180 14.98420624  3826
KUIPER-00074            
1 64821U 25151F   25255.91668981 -.00760913  00000+0 -26255-1 0  9990
2 64821  51.8808   4.8415 0009157   2.1725  39.8947 15.31715752  5826
KUIPER-00075            
1 64822U 25151G   25255.74445629  .00014610  00000+0  40068-3 0  9998
2 64822  51.8791   5.3154 0005651 348.5070  11.5787 15.37497560  8988
KUIPER-00076            
1 64823U 25151H   25255.91668981 -.00859323  00000+0 -35846-1 0  9992
2 64823  51.8820   5.2526 0006209   2.5466 223.0029 15.25918976  5881
KUIPER-00077            
1 64824U 25151J   25255.91668981 -.01578520  00000+0 -95459-1 0  9997
2 64824  51.8894   6.8832 0007068 327.0558 199.5822 15.13612883  5705
KUIPER-00078            
1 64825U 25151K   25255.91668981 -.01585504  00000+0 -81852-1 0  9990
2 64825  51.8817   5.9728 0010920  40.7290 201.5548 15.19075243  4671
